TRANSPORTER-10 OBJECT AD
1 59125U 24043AD  26068.86032889  .00011954  00000+0  36311-3 0  9997
2 59125  97.5470 207.3753 0008984 221.4908 138.5653 15.34189901112026
STARLINK-32294          
1 61675U 24193Q   26068.38844118 -.00000594  00000+0 -79391-5 0  9996
2 61675  53.1599  92.1815 0001332  86.2301 273.8852 15.30187949 76481
